STARLINK-36388          
1 68037U 26040Y   26076.91670139 -.01662685  00000+0 -86491-2 0  9998
2 68037  97.2762  25.7827 0001747  91.1879 176.2702 15.83843808  3707
STARLINK-36895          
1 68038U 26040Z   26076.91670139 -.01623126  00000+0 -83797-2 0  9992
2 68038  97.2732  25.7741 0001529  83.7548 170.4152 15.83930265  3741
STARLINK-36373          
1 68039U 26040AA  26076.91670139 -.01644378  00000+0 -84613-2 0  9993
2 68039  97.2729  25.7726 0001807  94.5562 155.0521 15.84036176  3698
STARLINK-36711          
1 68040U 26041A   26076.91670139 -.00054250  00000+0 -35159-3 0  9991
2 68040  53.1596  21.0422 0001177  67.4765  79.2246 15.75265115  3697
STARLINK-36825          
1 68041U 26041B   26076.94152040  .00180034  00000+0  89553-3 0  9996
2 68041  53.1590  20.7682 0000121 334.1080  25.9937 15.80902750  2523
STARLINK-36925          
1 68042U 26041C   26076.95464159  .00170230  00000+0  10903-2 0  9994
2 68042  53.1595  20.8565 0001387  79.6495 280.4681 15.75284999  2522
STARLINK-36902          
1 68043U 26041D   26076.94076979  .00280694  00000+0  13748-2 0  9999
2 68043  53.1592  20.7646 0001468 350.4230   9.6765 15.80953705  2524
STARLINK-36966          
1 68044U 26041E   26076.91670139 -.00058535  00000+0 -38001-3 0  9994
2 68044  53.1597  20.9926 0001355 121.1408  49.4559 15.75256684  3696
STARLINK-36864          
1 68045U 26041F   26076.91670139  .00073924  00000+0  48183-3 0  9994
2 68045  53.1596  20.9887 0001261  90.2454  82.2217 15.75256732  3695
STARLINK-36321          
1 68046U 26041G   26076.93776864  .00166603  00000+0  83018-3 0  9992
2 68046  53.1592  20.7445 0000718 332.1296  27.9688 15.80905890  2529
STARLINK-36181          
1 68047U 26041H   26076.93851909  .00279762  00000+0  13707-2 0  9995
2 68047  53.1591  20.7486 0000585 189.0387 171.0625 15.80948512  2526
STARLINK-36318          
1 68048U 26041J   26076.91670139 -.00054110  00000+0 -35066-3 0  9991
2 68048  53.1600  20.9395 0001238 118.2295  78.1178 15.75264925  3699
