CCSDS_OMM_VERS = 2.0
CREATION_DATE  = 
ORIGINATOR     = 

OBJECT_NAME    = STARLINK-36388
OBJECT_ID      = 2026-040Y
CENTER_NAME    = EARTH
REF_FRAME      = TEME
TIME_SYSTEM    = UTC
MEAN_ELEMENT_THEORY = SGP/SGP4

EPOCH          = 2026-03-17T22:00:03.000096
MEAN_MOTION    = 15.83843808
ECCENTRICITY   = .00017476
INCLINATION    = 97.2762
RA_OF_ASC_NODE = 25.7827
ARG_OF_PERICENTER = 91.1879
MEAN_ANOMALY   = 176.2702

EPHEMERIS_TYPE = 0
CLASSIFICATION_TYPE = U
NORAD_CAT_ID   = 68037
ELEMENT_SET_NO = 999
REV_AT_EPOCH   = 370
BSTAR          = -.864915E-2
MEAN_MOTION_DOT = -.1662685E-1
MEAN_MOTION_DDOT = 0

CCSDS_OMM_VERS = 2.0
CREATION_DATE  = 
ORIGINATOR     = 

OBJECT_NAME    = STARLINK-36895
OBJECT_ID      = 2026-040Z
CENTER_NAME    = EARTH
REF_FRAME      = TEME
TIME_SYSTEM    = UTC
MEAN_ELEMENT_THEORY = SGP/SGP4

EPOCH          = 2026-03-17T22:00:03.000096
MEAN_MOTION    = 15.83930265
ECCENTRICITY   = .00015293
INCLINATION    = 97.2732
RA_OF_ASC_NODE = 25.7741
ARG_OF_PERICENTER = 83.7548
MEAN_ANOMALY   = 170.4152

EPHEMERIS_TYPE = 0
CLASSIFICATION_TYPE = U
NORAD_CAT_ID   = 68038
ELEMENT_SET_NO = 999
REV_AT_EPOCH   = 374
BSTAR          = -.837974E-2
MEAN_MOTION_DOT = -.1623126E-1
MEAN_MOTION_DDOT = 0

CCSDS_OMM_VERS = 2.0
CREATION_DATE  = 
ORIGINATOR     = 

OBJECT_NAME    = STARLINK-36373
OBJECT_ID      = 2026-040AA
CENTER_NAME    = EARTH
REF_FRAME      = TEME
TIME_SYSTEM    = UTC
MEAN_ELEMENT_THEORY = SGP/SGP4

EPOCH          = 2026-03-17T22:00:03.000096
MEAN_MOTION    = 15.84036176
ECCENTRICITY   = .00018079
INCLINATION    = 97.2729
RA_OF_ASC_NODE = 25.7726
ARG_OF_PERICENTER = 94.5562
MEAN_ANOMALY   = 155.0521

EPHEMERIS_TYPE = 0
CLASSIFICATION_TYPE = U
NORAD_CAT_ID   = 68039
ELEMENT_SET_NO = 999
REV_AT_EPOCH   = 369
BSTAR          = -.84612708E-2
MEAN_MOTION_DOT = -.1644378E-1
MEAN_MOTION_DDOT = 0

CCSDS_OMM_VERS = 2.0
CREATION_DATE  = 
ORIGINATOR     = 

OBJECT_NAME    = STARLINK-36711
OBJECT_ID      = 2026-041A
CENTER_NAME    = EARTH
REF_FRAME      = TEME
TIME_SYSTEM    = UTC
MEAN_ELEMENT_THEORY = SGP/SGP4

EPOCH          = 2026-03-17T22:00:03.000096
MEAN_MOTION    = 15.75265115
ECCENTRICITY   = .00011776
INCLINATION    = 53.1596
RA_OF_ASC_NODE = 21.0422
ARG_OF_PERICENTER = 67.4765
MEAN_ANOMALY   = 79.2246

EPHEMERIS_TYPE = 0
CLASSIFICATION_TYPE = U
NORAD_CAT_ID   = 68040
ELEMENT_SET_NO = 999
REV_AT_EPOCH   = 369
BSTAR          = -.35158984E-3
MEAN_MOTION_DOT = -.5425E-3
MEAN_MOTION_DDOT = 0

CCSDS_OMM_VERS = 2.0
CREATION_DATE  = 
ORIGINATOR     = 

OBJECT_NAME    = STARLINK-36825
OBJECT_ID      = 2026-041B
CENTER_NAME    = EARTH
REF_FRAME      = TEME
TIME_SYSTEM    = UTC
MEAN_ELEMENT_THEORY = SGP/SGP4

EPOCH          = 2026-03-17T22:35:47.362560
MEAN_MOTION    = 15.80902750
ECCENTRICITY   = .00001213
INCLINATION    = 53.1590
RA_OF_ASC_NODE = 20.7682
ARG_OF_PERICENTER = 334.1080
MEAN_ANOMALY   = 25.9937

EPHEMERIS_TYPE = 0
CLASSIFICATION_TYPE = U
NORAD_CAT_ID   = 68041
ELEMENT_SET_NO = 999
REV_AT_EPOCH   = 252
BSTAR          = .8955276E-3
MEAN_MOTION_DOT = .180034E-2
MEAN_MOTION_DDOT = 0

CCSDS_OMM_VERS = 2.0
CREATION_DATE  = 
ORIGINATOR     = 

OBJECT_NAME    = STARLINK-36925
OBJECT_ID      = 2026-041C
CENTER_NAME    = EARTH
REF_FRAME      = TEME
TIME_SYSTEM    = UTC
MEAN_ELEMENT_THEORY = SGP/SGP4

EPOCH          = 2026-03-17T22:54:41.033376
MEAN_MOTION    = 15.75284999
ECCENTRICITY   = .00013871
INCLINATION    = 53.1595
RA_OF_ASC_NODE = 20.8565
ARG_OF_PERICENTER = 79.6495
MEAN_ANOMALY   = 280.4681

EPHEMERIS_TYPE = 0
CLASSIFICATION_TYPE = U
NORAD_CAT_ID   = 68042
ELEMENT_SET_NO = 999
REV_AT_EPOCH   = 252
BSTAR          = .10902574E-2
MEAN_MOTION_DOT = .17023E-2
MEAN_MOTION_DDOT = 0

CCSDS_OMM_VERS = 2.0
CREATION_DATE  = 
ORIGINATOR     = 

OBJECT_NAME    = STARLINK-36902
OBJECT_ID      = 2026-041D
CENTER_NAME    = EARTH
REF_FRAME      = TEME
TIME_SYSTEM    = UTC
MEAN_ELEMENT_THEORY = SGP/SGP4

EPOCH          = 2026-03-17T22:34:42.509856
MEAN_MOTION    = 15.80953705
ECCENTRICITY   = .00014684
INCLINATION    = 53.1592
RA_OF_ASC_NODE = 20.7646
ARG_OF_PERICENTER = 350.4230
MEAN_ANOMALY   = 9.6765

EPHEMERIS_TYPE = 0
CLASSIFICATION_TYPE = U
NORAD_CAT_ID   = 68043
ELEMENT_SET_NO = 999
REV_AT_EPOCH   = 252
BSTAR          = .13748273E-2
MEAN_MOTION_DOT = .280694E-2
MEAN_MOTION_DDOT = 0

CCSDS_OMM_VERS = 2.0
CREATION_DATE  = 
ORIGINATOR     = 

OBJECT_NAME    = STARLINK-36966
OBJECT_ID      = 2026-041E
CENTER_NAME    = EARTH
REF_FRAME      = TEME
TIME_SYSTEM    = UTC
MEAN_ELEMENT_THEORY = SGP/SGP4

EPOCH          = 2026-03-17T22:00:03.000096
MEAN_MOTION    = 15.75256684
ECCENTRICITY   = .00013559
INCLINATION    = 53.1597
RA_OF_ASC_NODE = 20.9926
ARG_OF_PERICENTER = 121.1408
MEAN_ANOMALY   = 49.4559

EPHEMERIS_TYPE = 0
CLASSIFICATION_TYPE = U
NORAD_CAT_ID   = 68044
ELEMENT_SET_NO = 999
REV_AT_EPOCH   = 369
BSTAR          = -.38001328E-3
MEAN_MOTION_DOT = -.58535E-3
MEAN_MOTION_DDOT = 0

CCSDS_OMM_VERS = 2.0
CREATION_DATE  = 
ORIGINATOR     = 

OBJECT_NAME    = STARLINK-36864
OBJECT_ID      = 2026-041F
CENTER_NAME    = EARTH
REF_FRAME      = TEME
TIME_SYSTEM    = UTC
MEAN_ELEMENT_THEORY = SGP/SGP4

EPOCH          = 2026-03-17T22:00:03.000096
MEAN_MOTION    = 15.75256732
ECCENTRICITY   = .00012611
INCLINATION    = 53.1596
RA_OF_ASC_NODE = 20.9887
ARG_OF_PERICENTER = 90.2454
MEAN_ANOMALY   = 82.2217

EPHEMERIS_TYPE = 0
CLASSIFICATION_TYPE = U
NORAD_CAT_ID   = 68045
ELEMENT_SET_NO = 999
REV_AT_EPOCH   = 369
BSTAR          = .48182689E-3
MEAN_MOTION_DOT = .73924E-3
MEAN_MOTION_DDOT = 0

CCSDS_OMM_VERS = 2.0
CREATION_DATE  = 
ORIGINATOR     = 

OBJECT_NAME    = STARLINK-36321
OBJECT_ID      = 2026-041G
CENTER_NAME    = EARTH
REF_FRAME      = TEME
TIME_SYSTEM    = UTC
MEAN_ELEMENT_THEORY = SGP/SGP4

EPOCH          = 2026-03-17T22:30:23.210496
MEAN_MOTION    = 15.80905890
ECCENTRICITY   = .0000718
INCLINATION    = 53.1592
RA_OF_ASC_NODE = 20.7445
ARG_OF_PERICENTER = 332.1296
MEAN_ANOMALY   = 27.9688

EPHEMERIS_TYPE = 0
CLASSIFICATION_TYPE = U
NORAD_CAT_ID   = 68046
ELEMENT_SET_NO = 999
REV_AT_EPOCH   = 252
BSTAR          = .83018238E-3
MEAN_MOTION_DOT = .166603E-2
MEAN_MOTION_DDOT = 0

CCSDS_OMM_VERS = 2.0
CREATION_DATE  = 
ORIGINATOR     = 

OBJECT_NAME    = STARLINK-36181
OBJECT_ID      = 2026-041H
CENTER_NAME    = EARTH
REF_FRAME      = TEME
TIME_SYSTEM    = UTC
MEAN_ELEMENT_THEORY = SGP/SGP4

EPOCH          = 2026-03-17T22:31:28.049376
MEAN_MOTION    = 15.80948512
ECCENTRICITY   = .00005854
INCLINATION    = 53.1591
RA_OF_ASC_NODE = 20.7486
ARG_OF_PERICENTER = 189.0387
MEAN_ANOMALY   = 171.0625

EPHEMERIS_TYPE = 0
CLASSIFICATION_TYPE = U
NORAD_CAT_ID   = 68047
ELEMENT_SET_NO = 999
REV_AT_EPOCH   = 252
BSTAR          = .13707076E-2
MEAN_MOTION_DOT = .279762E-2
MEAN_MOTION_DDOT = 0

CCSDS_OMM_VERS = 2.0
CREATION_DATE  = 
ORIGINATOR     = 

OBJECT_NAME    = STARLINK-36318
OBJECT_ID      = 2026-041J
CENTER_NAME    = EARTH
REF_FRAME      = TEME
TIME_SYSTEM    = UTC
MEAN_ELEMENT_THEORY = SGP/SGP4

EPOCH          = 2026-03-17T22:00:03.000096
MEAN_MOTION    = 15.75264925
ECCENTRICITY   = .00012381
INCLINATION    = 53.1600
RA_OF_ASC_NODE = 20.9395
ARG_OF_PERICENTER = 118.2295
MEAN_ANOMALY   = 78.1178

EPHEMERIS_TYPE = 0
CLASSIFICATION_TYPE = U
NORAD_CAT_ID   = 68048
ELEMENT_SET_NO = 999
REV_AT_EPOCH   = 369
BSTAR          = -.35066147E-3
MEAN_MOTION_DOT = -.5411E-3
MEAN_MOTION_DDOT = 0

